[{"OBJECT_NAME":"STARLINK-31275","OBJECT_ID":"2024-045V","EPOCH":"2026-03-09T18:54:30.335904","MEAN_MOTION":15.27567189,"ECCENTRICITY":0.00019977,"INCLINATION":43.0053,"RA_OF_ASC_NODE":92.2241,"ARG_OF_PERICENTER":270.678,"MEAN_ANOMALY":89.3843,"EPHEMERIS_TYPE":0,"CLASSIFICATION_TYPE":"U","NORAD_CAT_ID":59197,"ELEMENT_SET_NO":999,"REV_AT_EPOCH":11317,"BSTAR":1.1677939e-5,"MEAN_MOTION_DOT":5.9e-7,"MEAN_MOTION_DDOT":0},{"OBJECT_NAME":"FLOCK 4G-11","OBJECT_ID":"2025-009W","EPOCH":"2026-03-09T10:57:03.681504","MEAN_MOTION":15.27220677,"ECCENTRICITY":0.00016118,"INCLINATION":97.3964,"RA_OF_ASC_NODE":150.6183,"ARG_OF_PERICENTER":333.5407,"MEAN_ANOMALY":26.575,"EPHEMERIS_TYPE":0,"CLASSIFICATION_TYPE":"U","NORAD_CAT_ID":62629,"ELEMENT_SET_NO":999,"REV_AT_EPOCH":6368,"BSTAR":0.00047740378,"MEAN_MOTION_DOT":0.00012672,"MEAN_MOTION_DDOT":0}]
