STARLINK-31275          
1 59197U 24045V   26068.78785110  .00000059  00000+0  11678-4 0  9995
2 59197  43.0053  92.2241 0001998 270.6780  89.3843 15.27567189113174
FLOCK 4G-11             
1 62629U 25009W   26068.45629261  .00012672  00000+0  47740-3 0  9990
2 62629  97.3964 150.6183 0001611 333.5407  26.5750 15.27220677 63680
